{
  "norad_id": 62502,
  "name": "STARLINK-32788",
  "history": [
    {
      "epoch": "2026-03-28T17:22:42.484512",
      "apogee_km": 484.1619887896204,
      "perigee_km": 481.7833792843594,
      "latitude_deg": -29.318488873849702,
      "longitude_deg": 139.71387167996727,
      "semi_major_axis_km": 6861.10968403699,
      "eccentricity": 0.00017334,
      "inclination_deg": 43.003,
      "raan_deg": 181.3884,
      "arg_perigee_deg": 279.7406,
      "mean_anomaly_deg": 80.3249,
      "mean_motion_rev_day": 15.27605519
    }
  ]
}